OBJECT_NAME,OBJECT_ID,EPOCH,MEAN_MOTION,ECCENTRICITY,INCLINATION,RA_OF_ASC_NODE,ARG_OF_PERICENTER,MEAN_ANOMALY,EPHEMERIS_TYPE,CLASSIFICATION_TYPE,NORAD_CAT_ID,ELEMENT_SET_NO,REV_AT_EPOCH,BSTAR,MEAN_MOTION_DOT,MEAN_MOTION_DDOT
ONEWEB-0607,2022-166AF,2026-06-14T11:26:34.630944,13.21824267,.0001973,87.9261,244.5095,94.6038,265.5322,0,U,54671,999,17118,.24252E-3,.113E-5,0
ONEWEB-0608,2022-166AG,2026-06-14T11:36:16.153920,13.21827990,.0002324,87.9263,244.5049,87.3396,272.8004,0,U,54672,999,17119,.11514E-3,.61E-6,0
ONEWEB-0610,2022-166AH,2026-06-14T11:07:11.873568,13.21824651,.0002159,87.9254,244.5233,82.1061,278.0318,0,U,54673,999,17109,.24066E-3,.112E-5,0
ONEWEB-0611,2022-166AJ,2026-06-14T10:57:29.793312,13.21828168,.0002058,87.9253,244.5206,102.9379,257.1984,0,U,54674,999,17108,.2055E-3,.98E-6,0
ONEWEB-0612,2022-166AK,2026-06-14T11:16:54.168096,13.21825096,.0002109,87.9266,244.5133,94.5265,265.6110,0,U,54675,999,17107,.19813E-3,.95E-6,0
ONEWEB-0615,2022-166AL,2026-06-14T10:47:50.580672,13.21827061,.0001857,87.9256,244.5320,105.0398,255.0941,0,U,54676,999,17108,.11601E-3,.61E-6,0
ONEWEB-0655,2022-166AM,2026-06-14T06:35:55.438944,13.21827002,.000183,87.9256,244.5681,94.0644,266.0700,0,U,54677,999,17105,-.12882E-4,.8E-7,0
ONEWEB-0659,2022-166AN,2026-06-14T12:27:09.050400,13.21828127,.0002088,87.9255,244.5194,101.1147,259.0222,0,U,54678,999,17117,.50543E-4,.34E-6,0
ONEWEB-0685,2022-166AP,2026-06-14T12:27:20.234016,13.21847617,.000204,87.9252,244.5116,88.2421,271.8946,0,U,54679,999,17106,-.11513E-3,-.35E-6,0
ONEWEB-0712,2022-166AQ,2026-06-14T11:25:37.130016,13.16594306,.0001591,87.9101,229.3129,90.5874,269.5439,0,U,54680,999,17170,.10233E-3,.52E-6,0
ONEWEB-0714,2022-166AR,2026-06-14T10:45:23.601312,13.21824560,.0001696,87.9253,244.5230,98.0192,262.1135,0,U,54681,999,17117,-.11634E-3,-.35E-6,0
ONEWEB-0532,2023-004A,2026-06-14T10:49:53.857920,13.17780254,.000223,87.9140,6.4097,83.9182,276.2204,0,U,55140,999,16722,.17315E-1,.6754E-4,0
ONEWEB-0533,2023-004B,2026-06-14T11:37:11.228736,13.12444878,.0001836,87.8944,351.2083,83.6229,276.5109,0,U,55141,999,16770,-.2025E-4,.5E-7,0
ONEWEB-0541,2023-004C,2026-06-14T12:17:09.494016,13.11418655,.0001869,87.8898,21.5904,90.4847,269.6495,0,U,55142,999,16559,.17605E-2,.637E-5,0
ONEWEB-0543,2023-004D,2026-06-14T12:11:47.872608,13.18685663,.0001617,87.9158,336.0029,91.0471,269.0846,0,U,55143,999,16934,.11453E-3,.58E-6,0
ONEWEB-0544,2023-004E,2026-06-14T12:02:05.347392,13.18686286,.0001722,87.9159,336.0041,97.8255,262.3073,0,U,55144,999,16934,.18166E-3,.85E-6,0
ONEWEB-0560,2023-004F,2026-06-14T11:52:22.651968,13.18687525,.0001622,87.9160,335.9946,98.2016,261.9300,0,U,55145,999,16935,.19787E-3,.91E-6,0
ONEWEB-0565,2023-004G,2026-06-14T11:42:39.989376,13.18685631,.0002005,87.9150,336.0240,104.1788,255.9567,0,U,55146,999,16934,.1408E-3,.68E-6,0
ONEWEB-0567,2023-004H,2026-06-14T11:32:57.541920,13.18686132,.0001853,87.9159,336.0093,104.2334,255.9004,0,U,55147,999,16934,.11414E-3,.58E-6,0
ONEWEB-0569,2023-004J,2026-06-14T11:51:44.483040,13.13469977,.0001508,87.8958,320.7556,126.1628,233.9641,0,U,55148,999,16982,.11825E-2,.445E-5,0
ONEWEB-0570,2023-004K,2026-06-14T11:20:48.129792,13.18685267,.0002221,87.9157,336.0088,95.0790,265.0596,0,U,55149,999,16933,.61858E-4,.37E-6,0
ONEWEB-0571,2023-004L,2026-06-14T11:11:06.091872,13.18688228,.0002135,87.9159,336.0096,128.7344,231.3979,0,U,55150,999,16934,.12622E-3,.63E-6,0
ONEWEB-0572,2023-004M,2026-06-14T11:33:55.040256,13.17648923,.0001919,87.9135,6.4037,93.7794,266.3557,0,U,55151,999,16712,.12917E-3,.63E-6,0
ONEWEB-0573,2023-004N,2026-06-14T11:01:23.004192,13.18686090,.0002129,87.9160,336.0123,116.8998,243.2352,0,U,55152,999,16933,.82112E-4,.45E-6,0
ONEWEB-0588,2023-004P,2026-06-14T12:40:55.926048,13.18684757,.000232,87.9157,335.9989,97.7081,262.4315,0,U,55153,999,16934,-.87576E-4,-.22E-6,0
ONEWEB-0598,2023-004Q,2026-06-14T08:05:40.262784,13.11419730,.0001585,87.8888,21.6364,108.9217,251.2083,0,U,55154,999,16552,-.20555E-3,-.6E-6,0
ONEWEB-0599,2023-004R,2026-06-14T12:27:22.845024,13.17648749,.000163,87.9133,6.3952,88.1579,271.9739,0,U,55155,999,16713,.10385E-3,.53E-6,0
ONEWEB-0614,2023-004S,2026-06-14T02:28:44.091840,13.11418391,.00020292,87.8890,21.6918,82.6564,277.4794,0,U,55156,999,16543,-.10764949E-2,-.369E-5,0
ONEWEB-0616,2023-004T,2026-06-14T11:38:47.264064,13.17649452,.000101,87.9136,6.4053,70.6526,289.4714,0,U,55157,999,16734,.27873E-3,.121E-5,0
ONEWEB-0617,2023-004U,2026-06-14T07:41:15.383616,13.11416108,.0002258,87.8891,21.6391,85.9141,274.2245,0,U,55158,999,16548,-.18807E-2,-.654E-5,0
ONEWEB-0618,2023-004V,2026-06-14T11:30:26.366976,15.13122501,.0010054,86.9091,178.7340,313.3359,46.7042,0,U,55159,999,18185,.1926E-3,.3446E-4,0
