ONEWEB-0607             
1 54671U 22166AF  26165.47678971  .00000113  00000+0  24252-3 0  9991
2 54671  87.9261 244.5095 0001973  94.6038 265.5322 13.21824267171186
ONEWEB-0608             
1 54672U 22166AG  26165.48352030  .00000061  00000+0  11514-3 0  9997
2 54672  87.9263 244.5049 0002324  87.3396 272.8004 13.21827990171190
ONEWEB-0610             
1 54673U 22166AH  26165.46333187  .00000112  00000+0  24066-3 0  9991
2 54673  87.9254 244.5233 0002159  82.1061 278.0318 13.21824651171090
ONEWEB-0611             
1 54674U 22166AJ  26165.45659483  .00000098  00000+0  20550-3 0  9998
2 54674  87.9253 244.5206 0002058 102.9379 257.1984 13.21828168171084
ONEWEB-0612             
1 54675U 22166AK  26165.47007139  .00000095  00000+0  19813-3 0  9993
2 54675  87.9266 244.5133 0002109  94.5265 265.6110 13.21825096171076
ONEWEB-0615             
1 54676U 22166AL  26165.44989098  .00000061  00000+0  11601-3 0  9994
2 54676  87.9256 244.5320 0001857 105.0398 255.0941 13.21827061171088
ONEWEB-0655             
1 54677U 22166AM  26165.27494721  .00000008  00000+0 -12882-4 0  9995
2 54677  87.9256 244.5681 0001830  94.0644 266.0700 13.21827002171058
ONEWEB-0659             
1 54678U 22166AN  26165.51885475  .00000034  00000+0  50543-4 0  9997
2 54678  87.9255 244.5194 0002088 101.1147 259.0222 13.21828127171174
ONEWEB-0685             
1 54679U 22166AP  26165.51898419 -.00000035  00000+0 -11513-3 0  9996
2 54679  87.9252 244.5116 0002040  88.2421 271.8946 13.21847617171062
ONEWEB-0712             
1 54680U 22166AQ  26165.47612419  .00000052  00000+0  10233-3 0  9992
2 54680  87.9101 229.3129 0001591  90.5874 269.5439 13.16594306171700
ONEWEB-0714             
1 54681U 22166AR  26165.44818983 -.00000035  00000+0 -11634-3 0  9993
2 54681  87.9253 244.5230 0001696  98.0192 262.1135 13.21824560171170
ONEWEB-0532             
1 55140U 23004A   26165.45131780  .00006754  00000+0  17315-1 0  9992
2 55140  87.9140   6.4097 0002230  83.9182 276.2204 13.17780254167229
ONEWEB-0533             
1 55141U 23004B   26165.48415774  .00000005  00000+0 -20250-4 0  9993
2 55141  87.8944 351.2083 0001836  83.6229 276.5109 13.12444878167701
ONEWEB-0541             
1 55142U 23004C   26165.51191544  .00000637  00000+0  17605-2 0  9992
2 55142  87.8898  21.5904 0001869  90.4847 269.6495 13.11418655165596
ONEWEB-0543             
1 55143U 23004D   26165.50819297  .00000058  00000+0  11453-3 0  9997
2 55143  87.9158 336.0029 0001617  91.0471 269.0846 13.18685663169343
ONEWEB-0544             
1 55144U 23004E   26165.50145078  .00000085  00000+0  18166-3 0  9995
2 55144  87.9159 336.0041 0001722  97.8255 262.3073 13.18686286169340
ONEWEB-0560             
1 55145U 23004F   26165.49470662  .00000091  00000+0  19787-3 0  9991
2 55145  87.9160 335.9946 0001622  98.2016 261.9300 13.18687525169350
ONEWEB-0565             
1 55146U 23004G   26165.48796284  .00000068  00000+0  14080-3 0  9997
2 55146  87.9150 336.0240 0002005 104.1788 255.9567 13.18685631169341
ONEWEB-0567             
1 55147U 23004H   26165.48122155  .00000058  00000+0  11414-3 0  9995
2 55147  87.9159 336.0093 0001853 104.2334 255.9004 13.18686132169348
ONEWEB-0569             
1 55148U 23004J   26165.49426485  .00000445  00000+0  11825-2 0  9995
2 55148  87.8958 320.7556 0001508 126.1628 233.9641 13.13469977169822
ONEWEB-0570             
1 55149U 23004K   26165.47277928  .00000037  00000+0  61858-4 0  9990
2 55149  87.9157 336.0088 0002221  95.0790 265.0596 13.18685267169330
ONEWEB-0571             
1 55150U 23004L   26165.46604273  .00000063  00000+0  12622-3 0  9991
2 55150  87.9159 336.0096 0002135 128.7344 231.3979 13.18688228169348
ONEWEB-0572             
1 55151U 23004M   26165.48188704  .00000063  00000+0  12917-3 0  9997
2 55151  87.9135   6.4037 0001919  93.7794 266.3557 13.17648923167126
ONEWEB-0573             
1 55152U 23004N   26165.45929403  .00000045  00000+0  82112-4 0  9999
2 55152  87.9160 336.0123 0002129 116.8998 243.2352 13.18686090169330
ONEWEB-0588             
1 55153U 23004P   26165.52842507 -.00000022  00000+0 -87576-4 0  9993
2 55153  87.9157 335.9989 0002320  97.7081 262.4315 13.18684757169349
ONEWEB-0598             
1 55154U 23004Q   26165.33727156 -.00000060  00000+0 -20555-3 0  9990
2 55154  87.8888  21.6364 0001585 108.9217 251.2083 13.11419730165528
ONEWEB-0599             
1 55155U 23004R   26165.51901441  .00000053  00000+0  10385-3 0  9992
2 55155  87.9133   6.3952 0001630  88.1579 271.9739 13.17648749167133
ONEWEB-0614             
1 55156U 23004S   26165.10328810 -.00000369  00000+0 -10765-2 0  9994
2 55156  87.8890  21.6918 0002029  82.6564 277.4794 13.11418391165436
ONEWEB-0616             
1 55157U 23004T   26165.48526926  .00000121  00000+0  27873-3 0  9997
2 55157  87.9136   6.4053 0001010  70.6526 289.4714 13.17649452167343
ONEWEB-0617             
1 55158U 23004U   26165.32031694 -.00000654  00000+0 -18807-2 0  9993
2 55158  87.8891  21.6391 0002258  85.9141 274.2245 13.11416108165480
ONEWEB-0618             
1 55159U 23004V   26165.47947184  .00003446  00000+0  19260-3 0  9995
2 55159  86.9091 178.7340 0010054 313.3359  46.7042 15.13122501181854
